IRIDIUM 144             
1 43249U 18030A   23325.63473872  .00000205  00000+0  66312-4 0  9997
2 43249  86.3941 322.6734 0002331  90.4679 269.6784 14.34216234295611
IRIDIUM 149             
1 43250U 18030B   23325.50153618  .00000212  00000+0  68687-4 0  9993
2 43250  86.3940 322.7063 0002496  89.8796 270.2686 14.34218679295616
IRIDIUM 157             
1 43251U 18030C   23325.45077646  .00000186  00000+0  59477-4 0  9991
2 43251  86.3941 322.7600 0001992  90.3918 269.7506 14.34219134295585
IRIDIUM 140             
1 43252U 18030D   23325.53958634  .00000213  00000+0  69132-4 0  9996
2 43252  86.3942 322.7376 0002439  96.8532 263.2941 14.34217993295658
IRIDIUM 145             
1 43253U 18030E   23325.52690757  .00000205  00000+0  66209-4 0  9998
2 43253  86.3942 322.7173 0002566  89.7148 270.4341 14.34218204295581
IRIDIUM 146             
1 43254U 18030F   23325.57763112  .00000211  00000+0  68251-4 0  9996
2 43254  86.3942 322.7114 0002510  87.6122 272.5361 14.34219089295605
IRIDIUM 148             
1 43255U 18030G   23325.54594401  .00000206  00000+0  66533-4 0  9992
2 43255  86.3942 322.7538 0002376  82.9528 277.1938 14.34216192295630
IRIDIUM 142             
1 43256U 18030H   23325.51422130  .00000185  00000+0  59096-4 0  9991
2 43256  86.3939 322.6901 0002323  85.4322 274.7139 14.34218478295592
